NORAD_CAT_ID,OBJECT_NAME,OBJECT_TYPE,EPOCH,MEAN_MOTION,ECCENTRICITY,INCLINATION,RA_OF_ASC_NODE,ARG_OF_PERICENTER,MEAN_ANOMALY,BSTAR,MEAN_MOTION_DOT,MEAN_MOTION_DDOT,TLE_LINE0,TLE_LINE1,TLE_LINE2,SEMIMAJOR_AXIS,PERIOD,APOGEE,PERIGEE,DECAYED
54195.0,STARLINK-5258,PAYLOAD,2023-01-16 14:00:01,15.286516199999998,0.0001236,53.2141,108.8107,74.3669,285.5438,-0.04299,-0.01108911,0.0,0 STARLINK-5258,1 54195U 22141AQ  23016.58334491 -.01108911  00000-0 -42990-1 0  9991,2 54195  53.2141 108.8107 0001236  74.3669 285.5438 15.28651620  1309,6857.979,94.201,480.692,478.997,0.0
54195.0,STARLINK-5258,PAYLOAD,2023-01-16 22:00:00,15.27868257,0.0001182,53.2144,107.2677,78.4586,316.3713,-0.0465579999999999,-0.01182523,0.0,0 STARLINK-5258,1 54195U 22141AQ  23016.91667824 -.01182523  00000-0 -46558-1 0  9992,2 54195  53.2144 107.2677 0001182  78.4586 316.3713 15.27868257  1304,6860.323,94.249,482.999,481.377,0.0
54195.0,STARLINK-5258,PAYLOAD,2023-01-17 02:00:01,15.27416722,0.0001395,53.2146,106.4968,93.3653,138.5723,-0.043518,-0.01083079,0.0,0 STARLINK-5258,1 54195U 22141AQ  23017.08334491 -.01083079  00000-0 -43518-1 0  9991,2 54195  53.2146 106.4968 0001395  93.3653 138.5723 15.27416722 12973,6861.675,94.277,484.497,482.583,0.0
54195.0,STARLINK-5258,PAYLOAD,2023-01-17 14:00:01,15.26209495,0.0001367,53.2149,104.1911,75.6648,26.0869,-0.046084,-0.01103541,0.0,0 STARLINK-5258,1 54195U 22141AQ  23017.58334491 -.01103541  00000-0 -46084-1 0  9994,2 54195  53.2149 104.1911 0001367  75.6648  26.0869 15.26209495 13042,6865.293000000001,94.351,488.096,486.219,0.0
54195.0,STARLINK-5258,PAYLOAD,2023-01-17 22:00:00,15.25422042,0.0001343,53.215,102.6538,77.5455,56.1939,-0.049783,-0.01174321,0.0,0 STARLINK-5258,1 54195U 22141AQ  23017.91667824 -.01174321  00000-0 -49783-1 0  9993,2 54195  53.2150 102.6538 0001343  77.5455  56.1939 15.25422042  1305,6867.655,94.4,490.443,488.598,0.0
54195.0,STARLINK-5258,PAYLOAD,2023-01-18 06:00:00,15.24626022,0.0001534,53.2153,101.1193,86.3627,78.3775,-0.0514,-0.01182996,0.0,0 STARLINK-5258,1 54195U 22141AQ  23018.25001157 -.01182996  00000-0 -51400-1 0  9998,2 54195  53.2153 101.1193 0001534  86.3627  78.3775 15.24626022 13142,6870.045999999999,94.449,492.965,490.857,0.0
54195.0,STARLINK-5258,PAYLOAD,2023-01-18 14:00:01,15.23770971,0.0001405,53.2153,99.5888,76.8039,117.9863,-0.0497149999999999,-0.01105784,0.0,0 STARLINK-5258,1 54195U 22141AQ  23018.58334491 -.01105784  00000-0 -49715-1 0  9990,2 54195  53.2153  99.5888 0001405  76.8039 117.9863 15.23770971  1306,6872.615,94.502,495.446,493.515,0.0
54195.0,STARLINK-5258,PAYLOAD,2023-01-18 22:00:00,15.22975755,0.0001314,53.2154,98.0573,87.0794,136.7684,-0.0531539999999999,-0.01165739,0.0,0 STARLINK-5258,1 54195U 22141AQ  23018.91667824 -.01165739  00000-0 -53154-1 0  9994,2 54195  53.2154  98.0573 0001314  87.0794 136.7684 15.22975755  1309,6875.008000000001,94.552,497.776,495.969,0.0
54195.0,STARLINK-5258,PAYLOAD,2023-01-19 14:00:01,15.21325778,0.0001318,53.2157,95.004,90.0092,189.0214,-0.0530309999999999,-0.01111776,0.0,0 STARLINK-5258,1 54195U 22141AQ  23019.58334491 -.01111776  00000-0 -53031-1 0  9995,2 54195  53.2157  95.0040 0001318  90.0092 189.0214 15.21325778 13358,6879.978,94.654,502.749,500.936,0.0
54195.0,STARLINK-5258,PAYLOAD,2023-01-20 04:00:00,15.19929611,0.0001471,53.2157,92.3354,98.3898,135.70600000000002,-0.057418,-0.01152029,0.0,0 STARLINK-5258,1 54195U 22141AQ  23020.16667824 -.01152029  00000-0 -57418-1 0  9999,2 54195  53.2157  92.3354 0001471  98.3898 135.7060 15.19929611 13441,6884.19,94.741,507.068,505.042,0.0
54195.0,STARLINK-5258,PAYLOAD,2023-01-20 16:00:00,15.18695083,0.0001289,53.2156,90.0564,73.3345,17.02,-0.058408,-0.0113202,0.0,0 STARLINK-5258,1 54195U 22141AQ  23020.66667824 -.01132020  00000-0 -58408-1 0  9993,2 54195  53.2156  90.0564 0001289  73.3345  17.0200 15.18695083  1307,6887.92,94.818,510.673,508.898,0.0
54195.0,STARLINK-5258,PAYLOAD,2023-01-20 22:00:00,15.18080275,0.0001161999999999,53.2158,88.916,85.2262,292.4361,-0.059973,-0.01141025,0.0,0 STARLINK-5258,1 54195U 22141AQ  23020.91667824 -.01141025  00000-0 -59973-1 0  9994,2 54195  53.2158  88.9160 0001162  85.2262 292.4361 15.18080275 13555,6889.78,94.857,512.446,510.844,0.0
54195.0,STARLINK-5258,PAYLOAD,2023-01-21 22:00:00,15.15632011,0.0001237,53.216,84.3708,78.4391,2.9299,-0.063526,-0.01127517,0.0,0 STARLINK-5258,1 54195U 22141AQ  23021.91667824 -.01127517  00000-0 -63526-1 0  9994,2 54195  53.2160  84.3708 0001237  78.4391   2.9299 15.15632011 13705,6897.196999999999,95.01,519.9159999999999,518.2090000000001,0.0
54195.0,STARLINK-5258,PAYLOAD,2023-01-22 14:00:01,15.13999198,0.0001389,53.216,81.3517,69.9803,48.9661,-0.065138,-0.01105452,0.0,0 STARLINK-5258,1 54195U 22141AQ  23022.58334491 -.01105452  00000-0 -65138-1 0  9994,2 54195  53.2160  81.3517 0001389  69.9803  48.9661 15.13999198 13805,6902.156,95.112,524.979,523.062,0.0
54195.0,STARLINK-5258,PAYLOAD,2023-01-23 06:00:02,15.12417949,0.0001476,53.2162,78.3369,81.4656,71.2009,-0.073811,-0.01190588,0.0,0 STARLINK-5258,1 54195U 22141AQ  23023.25002315 -.01190588  00000-0 -73811-1 0  9997,2 54195  53.2162  78.3369 0001476  81.4656  71.2009 15.12417949 13904,6906.965999999999,95.212,529.85,527.811,0.0
54195.0,STARLINK-5258,PAYLOAD,2023-01-23 22:00:00,15.10739743,0.0001379,53.2163,75.3309,88.3286,94.0507,-0.071589,-0.01108463,0.0,0 STARLINK-5258,1 54195U 22141AQ  23023.91667824 -.01108463  00000-0 -71589-1 0  9993,2 54195  53.2163  75.3309 0001379  88.3286  94.0507 15.10739743 14008,6912.08,95.318,534.898,532.992,0.0
54195.0,STARLINK-5258,PAYLOAD,2023-01-24 14:00:01,15.08959421,0.0001189,53.2163,72.3345,84.4464,123.7704,-0.0110689999999999,-0.00172816,0.0,0 STARLINK-5258,1 54195U 22141AQ  23024.58334491 -.00172816  00000-0 -11069-1 0  9997,2 54195  53.2163  72.3345 0001189  84.4464 123.7704 15.08959421 14114,6917.515,95.43,540.203,538.558,0.0
54195.0,STARLINK-5258,PAYLOAD,2023-01-24 22:00:00,15.08822625,0.0001239,53.2164,70.836,102.0083,117.8788,0.0007132999999999,0.00011077,0.0,0 STARLINK-5258,1 54195U 22141AQ  23024.91667824  .00011077  00000-0  71330-3 0  9991,2 54195  53.2164  70.8360 0001239 102.0083 117.8788 15.08822625 14161,6917.933000000001,95.439,540.656,538.941,0.0
54195.0,STARLINK-5258,PAYLOAD,2023-01-25 14:00:01,15.08805897,0.0001255,53.2164,67.8447,96.9961,146.0694,0.0029857,0.00047505,0.0,0 STARLINK-5258,1 54195U 22141AQ  23025.58334491  .00047505  00000-0  29857-2 0  9997,2 54195  53.2164  67.8447 0001255  96.9961 146.0694 15.08805897  1301,6917.985,95.44,540.7180000000001,538.981,0.0
54195.0,STARLINK-5258,PAYLOAD,2023-01-25 22:00:00,15.08814844,0.000128,53.2165,66.3464,110.1934,144.4525,0.0032275,0.00051417,0.0,0 STARLINK-5258,1 54195U 22141AQ  23025.91667824  .00051417  00000-0  32275-2 0  9998,2 54195  53.2165  66.3464 0001280 110.1934 144.4525 15.08814844  1309,6917.956999999999,95.439,540.7080000000001,538.937,0.0
54195.0,STARLINK-5258,PAYLOAD,2023-01-26 06:00:00,15.08883413,0.0001312,53.2166,64.8508,105.6866,160.5399,-0.0031233,-0.00049711,0.0,0 STARLINK-5258,1 54195U 22141AQ  23026.25001157 -.00049711  00000-0 -31233-2 0  9996,2 54195  53.2166  64.8508 0001312 105.6866 160.5399 15.08883413 14367,6917.7480000000005,95.435,540.52,538.705,0.0
54195.0,STARLINK-5258,PAYLOAD,2023-01-26 14:00:01,15.08811092,0.0001228,53.2163,63.3553,88.5394,189.3244,0.00069199,0.00010734,0.0,0 STARLINK-5258,1 54195U 22141AQ  23026.58334491  .00010734  00000-0  69199-3 0  9996,2 54195  53.2163  63.3553 0001228  88.5394 189.3244 15.08811092  1301,6917.969,95.439,540.683,538.984,0.0
54195.0,STARLINK-5258,PAYLOAD,2023-01-27 06:00:00,15.08876219,0.000124,53.2165,60.3617,95.2143,205.8036,-0.0035192,-0.00055916,0.0,0 STARLINK-5258,1 54195U 22141AQ  23027.25001157 -.00055916  00000-0 -35192-2 0  9999,2 54195  53.2165  60.3617 0001240  95.2143 205.8036 15.08876219 14514,6917.77,95.435,540.492,538.7769999999999,0.0
54195.0,STARLINK-5258,PAYLOAD,2023-01-27 14:00:01,15.08808414,0.0001085,53.2161,58.86600000000001,85.5869,227.0522,0.0010655999999999,0.00016697,0.0,0 STARLINK-5258,1 54195U 22141AQ  23027.58334491  .00016697  00000-0  10656-2 0  9994,2 54195  53.2161  58.8660 0001085  85.5869 227.0522 15.08808414  1305,6917.977,95.44,540.5930000000001,539.091,0.0
54195.0,STARLINK-5258,PAYLOAD,2023-01-27 22:00:00,15.08793215,0.0001048,53.2162,57.368,98.7833,225.4275,0.0039099,0.00062409,0.0,0 STARLINK-5258,1 54195U 22141AQ  23027.91667824  .00062409  00000-0  39099-2 0  9994,2 54195  53.2162  57.3680 0001048  98.7833 225.4275 15.08793215  1307,6918.023,95.441,540.613,539.163,0.0
54195.0,STARLINK-5258,PAYLOAD,2023-01-28 02:55:41,15.08831813,0.0001531999999999,53.2191,56.4473,100.3559,259.7606,-3.6712e-05,-8.72e-06,0.0,0 STARLINK-5258,1 54195U 22141AQ  23028.12201342 -.00000872  00000-0 -36712-4 0  9996,2 54195  53.2191  56.4473 0001532 100.3559 259.7606 15.08831813 14648,6917.905,95.438,540.83,538.711,0.0
54195.0,STARLINK-5258,PAYLOAD,2023-01-28 10:52:37,15.08837229,0.0001125,53.2173,54.959,86.4839,273.6282,-4.6332e-05,-1.025e-05,0.0,0 STARLINK-5258,1 54195U 22141AQ  23028.45321141 -.00001025  00000-0 -46332-4 0  9992,2 54195  53.2173  54.9590 0001125  86.4839 273.6282 15.08837229 14466,6917.889,95.438,540.532,538.976,0.0
54195.0,STARLINK-5258,PAYLOAD,2023-01-29 07:32:38,15.08838887,0.0001183,53.2176,51.0937,86.4707,273.6421,-1.786e-06,-3.16e-06,0.0,0 STARLINK-5258,1 54195U 22141AQ  23029.31433114 -.00000316  00000-0 -17860-5 0  9999,2 54195  53.2176  51.0937 0001183  86.4707 273.6421 15.08838887 14826,6917.884,95.438,540.567,538.93,0.0
54195.0,STARLINK-5258,PAYLOAD,2023-01-30 07:23:25,15.08840532,0.0001128,53.2176,46.6333,86.7516,273.3605,7.0239e-05,8.3e-06,0.0,0 STARLINK-5258,1 54195U 22141AQ  23030.30792833  .00000830  00000-0  70239-4 0  9993,2 54195  53.2176  46.6333 0001128  86.7516 273.3605 15.08840532 14748,6917.879,95.438,540.524,538.963,0.0
